[{"OBJECT_NAME":"STARLINK-36618","OBJECT_ID":"2026-033AC","EPOCH":"2026-03-03T12:00:00.998784","MEAN_MOTION":15.97547441,"ECCENTRICITY":0.0002336,"INCLINATION":42.9864,"RA_OF_ASC_NODE":307.5994,"ARG_OF_PERICENTER":263.9566,"MEAN_ANOMALY":67.3905,"EPHEMERIS_TYPE":0,"CLASSIFICATION_TYPE":"U","NORAD_CAT_ID":67847,"ELEMENT_SET_NO":999,"REV_AT_EPOCH":366,"BSTAR":-0.0019177,"MEAN_MOTION_DOT":-0.00891282,"MEAN_MOTION_DDOT":0.0002591},{"OBJECT_NAME":"STARLINK-36818","OBJECT_ID":"2026-035A","EPOCH":"2026-03-03T12:00:00.998784","MEAN_MOTION":16.00433618,"ECCENTRICITY":0.0001263,"INCLINATION":97.279,"RA_OF_ASC_NODE":354.3428,"ARG_OF_PERICENTER":108.2837,"MEAN_ANOMALY":213.0083,"EPHEMERIS_TYPE":0,"CLASSIFICATION_TYPE":"U","NORAD_CAT_ID":67879,"ELEMENT_SET_NO":999,"REV_AT_EPOCH":276,"BSTAR":-0.0017509,"MEAN_MOTION_DOT":-0.00907126,"MEAN_MOTION_DDOT":0.00027491},{"OBJECT_NAME":"STARLINK-36821","OBJECT_ID":"2026-035B","EPOCH":"2026-03-03T12:00:00.998784","MEAN_MOTION":16.00618249,"ECCENTRICITY":0.0001136,"INCLINATION":97.2785,"RA_OF_ASC_NODE":354.3455,"ARG_OF_PERICENTER":106.2804,"MEAN_ANOMALY":220.7627,"EPHEMERIS_TYPE":0,"CLASSIFICATION_TYPE":"U","NORAD_CAT_ID":67880,"ELEMENT_SET_NO":999,"REV_AT_EPOCH":276,"BSTAR":-0.0017338,"MEAN_MOTION_DOT":-0.00907767,"MEAN_MOTION_DDOT":0.00027585},{"OBJECT_NAME":"STARLINK-36808","OBJECT_ID":"2026-035C","EPOCH":"2026-03-03T12:00:00.998784","MEAN_MOTION":16.00503043,"ECCENTRICITY":0.0001364,"INCLINATION":97.2786,"RA_OF_ASC_NODE":354.3438,"ARG_OF_PERICENTER":118.769,"MEAN_ANOMALY":204.6806,"EPHEMERIS_TYPE":0,"CLASSIFICATION_TYPE":"U","NORAD_CAT_ID":67881,"ELEMENT_SET_NO":999,"REV_AT_EPOCH":276,"BSTAR":-0.0017404,"MEAN_MOTION_DOT":-0.00905302,"MEAN_MOTION_DDOT":0.0002741},{"OBJECT_NAME":"STARLINK-36817","OBJECT_ID":"2026-035D","EPOCH":"2026-03-03T12:00:00.998784","MEAN_MOTION":16.0083917,"ECCENTRICITY":0.0001104,"INCLINATION":97.2779,"RA_OF_ASC_NODE":354.3481,"ARG_OF_PERICENTER":100.7161,"MEAN_ANOMALY":233.3565,"EPHEMERIS_TYPE":0,"CLASSIFICATION_TYPE":"U","NORAD_CAT_ID":67882,"ELEMENT_SET_NO":999,"REV_AT_EPOCH":276,"BSTAR":-0.0017175,"MEAN_MOTION_DOT":-0.00910602,"MEAN_MOTION_DDOT":0.00027815},{"OBJECT_NAME":"STARLINK-36856","OBJECT_ID":"2026-035E","EPOCH":"2026-03-03T12:00:00.998784","MEAN_MOTION":16.00735211,"ECCENTRICITY":0.0001191,"INCLINATION":97.2783,"RA_OF_ASC_NODE":354.3468,"ARG_OF_PERICENTER":110.3235,"MEAN_ANOMALY":220.4822,"EPHEMERIS_TYPE":0,"CLASSIFICATION_TYPE":"U","NORAD_CAT_ID":67883,"ELEMENT_SET_NO":999,"REV_AT_EPOCH":276,"BSTAR":-0.00173,"MEAN_MOTION_DOT":-0.00911828,"MEAN_MOTION_DDOT":0.00027851},{"OBJECT_NAME":"STARLINK-36842","OBJECT_ID":"2026-035F","EPOCH":"2026-03-03T12:00:00.998784","MEAN_MOTION":16.00945914,"ECCENTRICITY":0.0001072,"INCLINATION":97.278,"RA_OF_ASC_NODE":354.3494,"ARG_OF_PERICENTER":106.9233,"MEAN_ANOMALY":230.1819,"EPHEMERIS_TYPE":0,"CLASSIFICATION_TYPE":"U","NORAD_CAT_ID":67884,"ELEMENT_SET_NO":999,"REV_AT_EPOCH":276,"BSTAR":-0.0017246,"MEAN_MOTION_DOT":-0.00919918,"MEAN_MOTION_DDOT":0.0002838},{"OBJECT_NAME":"STARLINK-36826","OBJECT_ID":"2026-035G","EPOCH":"2026-03-03T12:00:00.998784","MEAN_MOTION":16.01018025,"ECCENTRICITY":0.0001069,"INCLINATION":97.2779,"RA_OF_ASC_NODE":354.3506,"ARG_OF_PERICENTER":94.7729,"MEAN_ANOMALY":244.7325,"EPHEMERIS_TYPE":0,"CLASSIFICATION_TYPE":"U","NORAD_CAT_ID":67885,"ELEMENT_SET_NO":999,"REV_AT_EPOCH":276,"BSTAR":-0.0016877,"MEAN_MOTION_DOT":-0.00904073,"MEAN_MOTION_DDOT":0.00027502},{"OBJECT_NAME":"STARLINK-36390","OBJECT_ID":"2026-035H","EPOCH":"2026-03-03T12:00:00.998784","MEAN_MOTION":16.01138097,"ECCENTRICITY":0.0001151,"INCLINATION":97.2777,"RA_OF_ASC_NODE":354.3521,"ARG_OF_PERICENTER":104.1773,"MEAN_ANOMALY":239.0553,"EPHEMERIS_TYPE":0,"CLASSIFICATION_TYPE":"U","NORAD_CAT_ID":67886,"ELEMENT_SET_NO":999,"REV_AT_EPOCH":281,"BSTAR":-0.0016846,"MEAN_MOTION_DOT":-0.00908581,"MEAN_MOTION_DDOT":0.00027796},{"OBJECT_NAME":"STARLINK-36368","OBJECT_ID":"2026-035J","EPOCH":"2026-03-03T12:00:00.998784","MEAN_MOTION":16.01254042,"ECCENTRICITY":0.0001271,"INCLINATION":97.2774,"RA_OF_ASC_NODE":354.3534,"ARG_OF_PERICENTER":117.0223,"MEAN_ANOMALY":229.7449,"EPHEMERIS_TYPE":0,"CLASSIFICATION_TYPE":"U","NORAD_CAT_ID":67887,"ELEMENT_SET_NO":999,"REV_AT_EPOCH":276,"BSTAR":-0.0016962,"MEAN_MOTION_DOT":-0.00920916,"MEAN_MOTION_DDOT":0.00028538},{"OBJECT_NAME":"STARLINK-36801","OBJECT_ID":"2026-035K","EPOCH":"2026-03-03T12:00:00.998784","MEAN_MOTION":16.01393071,"ECCENTRICITY":0.0001129,"INCLINATION":97.2773,"RA_OF_ASC_NODE":354.3549,"ARG_OF_PERICENTER":77.9704,"MEAN_ANOMALY":272.1757,"EPHEMERIS_TYPE":0,"CLASSIFICATION_TYPE":"U","NORAD_CAT_ID":67888,"ELEMENT_SET_NO":999,"REV_AT_EPOCH":276,"BSTAR":-0.0017712,"MEAN_MOTION_DOT":-0.0096892,"MEAN_MOTION_DDOT":0.00031408},{"OBJECT_NAME":"STARLINK-36372","OBJECT_ID":"2026-035L","EPOCH":"2026-03-03T12:00:00.998784","MEAN_MOTION":16.01623184,"ECCENTRICITY":0.0001138,"INCLINATION":97.2768,"RA_OF_ASC_NODE":354.3576,"ARG_OF_PERICENTER":80.5202,"MEAN_ANOMALY":276.1261,"EPHEMERIS_TYPE":0,"CLASSIFICATION_TYPE":"U","NORAD_CAT_ID":67889,"ELEMENT_SET_NO":999,"REV_AT_EPOCH":276,"BSTAR":-0.0018654,"MEAN_MOTION_DOT":-0.0103352,"MEAN_MOTION_DDOT":0.0003549},{"OBJECT_NAME":"STARLINK-36363","OBJECT_ID":"2026-035M","EPOCH":"2026-03-03T12:00:00.998784","MEAN_MOTION":16.01522729,"ECCENTRICITY":0.0001221,"INCLINATION":97.2772,"RA_OF_ASC_NODE":354.3568,"ARG_OF_PERICENTER":107.7052,"MEAN_ANOMALY":246.2989,"EPHEMERIS_TYPE":0,"CLASSIFICATION_TYPE":"U","NORAD_CAT_ID":67890,"ELEMENT_SET_NO":999,"REV_AT_EPOCH":276,"BSTAR":-0.0018219,"MEAN_MOTION_DOT":-0.01003857,"MEAN_MOTION_DDOT":0.00033588},{"OBJECT_NAME":"STARLINK-36816","OBJECT_ID":"2026-035N","EPOCH":"2026-03-03T12:00:00.998784","MEAN_MOTION":16.03046695,"ECCENTRICITY":0.0001061,"INCLINATION":97.2749,"RA_OF_ASC_NODE":354.377,"ARG_OF_PERICENTER":96.3622,"MEAN_ANOMALY":309.4489,"EPHEMERIS_TYPE":0,"CLASSIFICATION_TYPE":"U","NORAD_CAT_ID":67891,"ELEMENT_SET_NO":999,"REV_AT_EPOCH":265,"BSTAR":-0.0018057,"MEAN_MOTION_DOT":-0.01086416,"MEAN_MOTION_DDOT":0.00039572},{"OBJECT_NAME":"STARLINK-36813","OBJECT_ID":"2026-035P","EPOCH":"2026-03-03T12:00:00.998784","MEAN_MOTION":16.02390865,"ECCENTRICITY":0.0001268,"INCLINATION":97.275,"RA_OF_ASC_NODE":354.3678,"ARG_OF_PERICENTER":114.73,"MEAN_ANOMALY":269.1989,"EPHEMERIS_TYPE":0,"CLASSIFICATION_TYPE":"U","NORAD_CAT_ID":67892,"ELEMENT_SET_NO":999,"REV_AT_EPOCH":276,"BSTAR":-0.0018765,"MEAN_MOTION_DOT":-0.01086534,"MEAN_MOTION_DDOT":0.00039278},{"OBJECT_NAME":"STARLINK-36803","OBJECT_ID":"2026-035Q","EPOCH":"2026-03-03T12:00:00.998784","MEAN_MOTION":16.01747406,"ECCENTRICITY":0.0001039,"INCLINATION":97.2768,"RA_OF_ASC_NODE":354.3593,"ARG_OF_PERICENTER":83.0724,"MEAN_ANOMALY":277.7105,"EPHEMERIS_TYPE":0,"CLASSIFICATION_TYPE":"U","NORAD_CAT_ID":67893,"ELEMENT_SET_NO":999,"REV_AT_EPOCH":276,"BSTAR":-0.0019094,"MEAN_MOTION_DOT":-0.01065233,"MEAN_MOTION_DDOT":0.00037586}]
